[{"OBJECT_NAME":"STARLINK-5988","OBJECT_ID":"2023-058D","EPOCH":"2026-01-24T10:05:00.582432","MEAN_MOTION":15.01263556,"ECCENTRICITY":0.00018332,"INCLINATION":97.6055,"RA_OF_ASC_NODE":26.7903,"ARG_OF_PERICENTER":89.1526,"MEAN_ANOMALY":270.9908,"EPHEMERIS_TYPE":0,"CLASSIFICATION_TYPE":"U","NORAD_CAT_ID":56320,"ELEMENT_SET_NO":999,"REV_AT_EPOCH":15114,"BSTAR":8.7816361e-5,"MEAN_MOTION_DOT":1.07e-5,"MEAN_MOTION_DDOT":0},{"OBJECT_NAME":"STARLINK-5876","OBJECT_ID":"2023-058E","EPOCH":"2026-01-24T17:18:22.141440","MEAN_MOTION":15.05707138,"ECCENTRICITY":9.199e-5,"INCLINATION":97.6046,"RA_OF_ASC_NODE":27.9211,"ARG_OF_PERICENTER":144.0386,"MEAN_ANOMALY":216.0903,"EPHEMERIS_TYPE":0,"CLASSIFICATION_TYPE":"U","NORAD_CAT_ID":56321,"ELEMENT_SET_NO":999,"REV_AT_EPOCH":15123,"BSTAR":-0.00133689,"MEAN_MOTION_DOT":-0.00019328,"MEAN_MOTION_DDOT":0},{"OBJECT_NAME":"STARLINK-6033","OBJECT_ID":"2023-058F","EPOCH":"2026-01-24T22:49:49.498176","MEAN_MOTION":15.01265455,"ECCENTRICITY":0.00022008,"INCLINATION":97.6078,"RA_OF_ASC_NODE":27.3163,"ARG_OF_PERICENTER":83.0508,"MEAN_ANOMALY":277.0967,"EPHEMERIS_TYPE":0,"CLASSIFICATION_TYPE":"U","NORAD_CAT_ID":56322,"ELEMENT_SET_NO":999,"REV_AT_EPOCH":15121,"BSTAR":0.00016372322,"MEAN_MOTION_DOT":2.045e-5,"MEAN_MOTION_DDOT":0},{"OBJECT_NAME":"STARLINK-6035","OBJECT_ID":"2023-058G","EPOCH":"2026-01-24T11:27:18.331200","MEAN_MOTION":15.01263995,"ECCENTRICITY":0.00029684,"INCLINATION":97.6047,"RA_OF_ASC_NODE":26.8722,"ARG_OF_PERICENTER":70.6799,"MEAN_ANOMALY":289.4747,"EPHEMERIS_TYPE":0,"CLASSIFICATION_TYPE":"U","NORAD_CAT_ID":56323,"ELEMENT_SET_NO":999,"REV_AT_EPOCH":15113,"BSTAR":8.6026389e-5,"MEAN_MOTION_DOT":1.047e-5,"MEAN_MOTION_DDOT":0},{"OBJECT_NAME":"STARLINK-6034","OBJECT_ID":"2023-058H","EPOCH":"2026-01-24T23:21:15.450336","MEAN_MOTION":15.05647699,"ECCENTRICITY":0.00013829,"INCLINATION":97.6057,"RA_OF_ASC_NODE":28.197,"ARG_OF_PERICENTER":93.4983,"MEAN_ANOMALY":266.6402,"EPHEMERIS_TYPE":0,"CLASSIFICATION_TYPE":"U","NORAD_CAT_ID":56324,"ELEMENT_SET_NO":999,"REV_AT_EPOCH":15127,"BSTAR":4.5842479e-5,"MEAN_MOTION_DOT":6.01e-6,"MEAN_MOTION_DDOT":0},{"OBJECT_NAME":"STARLINK-5981","OBJECT_ID":"2023-058J","EPOCH":"2026-01-24T22:28:29.621280","MEAN_MOTION":15.01266977,"ECCENTRICITY":0.00036004,"INCLINATION":97.6051,"RA_OF_ASC_NODE":27.3395,"ARG_OF_PERICENTER":43.5799,"MEAN_ANOMALY":316.5709,"EPHEMERIS_TYPE":0,"CLASSIFICATION_TYPE":"U","NORAD_CAT_ID":56325,"ELEMENT_SET_NO":999,"REV_AT_EPOCH":15156,"BSTAR":9.1630347e-5,"MEAN_MOTION_DOT":1.119e-5,"MEAN_MOTION_DDOT":0},{"OBJECT_NAME":"STARLINK-5980","OBJECT_ID":"2023-058K","EPOCH":"2026-01-24T22:42:10.968192","MEAN_MOTION":15.01263099,"ECCENTRICITY":0.00031211,"INCLINATION":97.6028,"RA_OF_ASC_NODE":27.3256,"ARG_OF_PERICENTER":72.9568,"MEAN_ANOMALY":287.1998,"EPHEMERIS_TYPE":0,"CLASSIFICATION_TYPE":"U","NORAD_CAT_ID":56326,"ELEMENT_SET_NO":999,"REV_AT_EPOCH":15121,"BSTAR":1.0914847e-5,"MEAN_MOTION_DOT":8.2e-7,"MEAN_MOTION_DDOT":0},{"OBJECT_NAME":"STARLINK-5997","OBJECT_ID":"2023-058L","EPOCH":"2026-01-24T22:20:50.635968","MEAN_MOTION":15.01264227,"ECCENTRICITY":0.00023717,"INCLINATION":97.6046,"RA_OF_ASC_NODE":27.345,"ARG_OF_PERICENTER":50.3919,"MEAN_ANOMALY":309.7514,"EPHEMERIS_TYPE":0,"CLASSIFICATION_TYPE":"U","NORAD_CAT_ID":56327,"ELEMENT_SET_NO":999,"REV_AT_EPOCH":15156,"BSTAR":5.2712341e-5,"MEAN_MOTION_DOT":6.19e-6,"MEAN_MOTION_DDOT":0},{"OBJECT_NAME":"STARLINK-5992","OBJECT_ID":"2023-058M","EPOCH":"2026-01-24T22:37:23.188800","MEAN_MOTION":15.05660453,"ECCENTRICITY":0.00023554,"INCLINATION":97.6058,"RA_OF_ASC_NODE":28.0861,"ARG_OF_PERICENTER":58.1082,"MEAN_ANOMALY":302.0374,"EPHEMERIS_TYPE":0,"CLASSIFICATION_TYPE":"U","NORAD_CAT_ID":56328,"ELEMENT_SET_NO":999,"REV_AT_EPOCH":15161,"BSTAR":0.00011069733,"MEAN_MOTION_DOT":1.537e-5,"MEAN_MOTION_DDOT":0},{"OBJECT_NAME":"STARLINK-5984","OBJECT_ID":"2023-058N","EPOCH":"2026-01-24T17:30:21.397248","MEAN_MOTION":15.05658102,"ECCENTRICITY":0.00023218,"INCLINATION":97.6056,"RA_OF_ASC_NODE":27.9089,"ARG_OF_PERICENTER":89.6318,"MEAN_ANOMALY":270.5175,"EPHEMERIS_TYPE":0,"CLASSIFICATION_TYPE":"U","NORAD_CAT_ID":56329,"ELEMENT_SET_NO":999,"REV_AT_EPOCH":15158,"BSTAR":0.00014819212,"MEAN_MOTION_DOT":2.079e-5,"MEAN_MOTION_DDOT":0},{"OBJECT_NAME":"STARLINK-5991","OBJECT_ID":"2023-058Q","EPOCH":"2026-01-24T22:17:49.653024","MEAN_MOTION":15.01267757,"ECCENTRICITY":0.00028743,"INCLINATION":97.6049,"RA_OF_ASC_NODE":27.3468,"ARG_OF_PERICENTER":49.7599,"MEAN_ANOMALY":310.3877,"EPHEMERIS_TYPE":0,"CLASSIFICATION_TYPE":"U","NORAD_CAT_ID":56331,"ELEMENT_SET_NO":999,"REV_AT_EPOCH":15156,"BSTAR":0.00011044984,"MEAN_MOTION_DOT":1.361e-5,"MEAN_MOTION_DDOT":0},{"OBJECT_NAME":"STARLINK-5093","OBJECT_ID":"2023-058R","EPOCH":"2026-01-24T17:45:54.674496","MEAN_MOTION":15.01262383,"ECCENTRICITY":0.00037336,"INCLINATION":97.6032,"RA_OF_ASC_NODE":27.1392,"ARG_OF_PERICENTER":53.0077,"MEAN_ANOMALY":307.1489,"EPHEMERIS_TYPE":0,"CLASSIFICATION_TYPE":"U","NORAD_CAT_ID":56332,"ELEMENT_SET_NO":999,"REV_AT_EPOCH":15153,"BSTAR":5.7063469e-5,"MEAN_MOTION_DOT":6.75e-6,"MEAN_MOTION_DDOT":0},{"OBJECT_NAME":"STARLINK-5553","OBJECT_ID":"2023-058S","EPOCH":"2026-01-24T22:57:18.959616","MEAN_MOTION":15.05658512,"ECCENTRICITY":0.00019692,"INCLINATION":97.6063,"RA_OF_ASC_NODE":28.0669,"ARG_OF_PERICENTER":103.024,"MEAN_ANOMALY":257.1206,"EPHEMERIS_TYPE":0,"CLASSIFICATION_TYPE":"U","NORAD_CAT_ID":56333,"ELEMENT_SET_NO":999,"REV_AT_EPOCH":15161,"BSTAR":0.00013368723,"MEAN_MOTION_DOT":1.869e-5,"MEAN_MOTION_DDOT":0},{"OBJECT_NAME":"STARLINK-5548","OBJECT_ID":"2023-058T","EPOCH":"2026-01-24T23:17:16.396224","MEAN_MOTION":15.05659605,"ECCENTRICITY":0.00019316,"INCLINATION":97.6038,"RA_OF_ASC_NODE":28.2013,"ARG_OF_PERICENTER":73.9006,"MEAN_ANOMALY":286.2433,"EPHEMERIS_TYPE":0,"CLASSIFICATION_TYPE":"U","NORAD_CAT_ID":56334,"ELEMENT_SET_NO":999,"REV_AT_EPOCH":15162,"BSTAR":0.00068252021,"MEAN_MOTION_DOT":9.804e-5,"MEAN_MOTION_DDOT":0},{"OBJECT_NAME":"STARLINK-5559","OBJECT_ID":"2023-058U","EPOCH":"2026-01-24T17:14:24.914688","MEAN_MOTION":15.05651014,"ECCENTRICITY":0.00016322,"INCLINATION":97.606,"RA_OF_ASC_NODE":27.9235,"ARG_OF_PERICENTER":84.2368,"MEAN_ANOMALY":275.9045,"EPHEMERIS_TYPE":0,"CLASSIFICATION_TYPE":"U","NORAD_CAT_ID":56335,"ELEMENT_SET_NO":999,"REV_AT_EPOCH":15158,"BSTAR":0.00028324222,"MEAN_MOTION_DOT":4.029e-5,"MEAN_MOTION_DDOT":0},{"OBJECT_NAME":"STARLINK-5562","OBJECT_ID":"2023-058V","EPOCH":"2026-01-24T22:23:09.628512","MEAN_MOTION":15.01267757,"ECCENTRICITY":0.00034064,"INCLINATION":97.6047,"RA_OF_ASC_NODE":27.3429,"ARG_OF_PERICENTER":59.0949,"MEAN_ANOMALY":301.061,"EPHEMERIS_TYPE":0,"CLASSIFICATION_TYPE":"U","NORAD_CAT_ID":56336,"ELEMENT_SET_NO":999,"REV_AT_EPOCH":15156,"BSTAR":-9.1590464e-5,"MEAN_MOTION_DOT":-1.235e-5,"MEAN_MOTION_DDOT":0}]
