STARLINK-5988           
1 56320U 23058D   26024.42014563  .00001070  00000+0  87816-4 0  9994
2 56320  97.6055  26.7903 0001833  89.1526 270.9908 15.01263556151144
STARLINK-5876           
1 56321U 23058E   26024.72108960 -.00019328  00000+0 -13369-2 0  9990
2 56321  97.6046  27.9211 0000919 144.0386 216.0903 15.05707138151238
STARLINK-6033           
1 56322U 23058F   26024.95126734  .00002045  00000+0  16372-3 0  9999
2 56322  97.6078  27.3163 0002200  83.0508 277.0967 15.01265455151219
STARLINK-6035           
1 56323U 23058G   26024.47729550  .00001047  00000+0  86026-4 0  9997
2 56323  97.6047  26.8722 0002968  70.6799 289.4747 15.01263995151137
STARLINK-6034           
1 56324U 23058H   26024.97309549  .00000601  00000+0  45842-4 0  9991
2 56324  97.6057  28.1970 0001382  93.4983 266.6402 15.05647699151277
STARLINK-5981           
1 56325U 23058J   26024.93645395  .00001119  00000+0  91630-4 0  9991
2 56325  97.6051  27.3395 0003600  43.5799 316.5709 15.01266977151569
STARLINK-5980           
1 56326U 23058K   26024.94596028  .00000082  00000+0  10915-4 0  9996
2 56326  97.6028  27.3256 0003121  72.9568 287.1998 15.01263099151215
STARLINK-5997           
1 56327U 23058L   26024.93114162  .00000619  00000+0  52712-4 0  9998
2 56327  97.6046  27.3450 0002371  50.3919 309.7514 15.01264227151565
STARLINK-5992           
1 56328U 23058M   26024.94262950  .00001537  00000+0  11070-3 0  9990
2 56328  97.6058  28.0861 0002355  58.1082 302.0374 15.05660453151613
STARLINK-5984           
1 56329U 23058N   26024.72941432  .00002079  00000+0  14819-3 0  9992
2 56329  97.6056  27.9089 0002321  89.6318 270.5175 15.05658102151588
STARLINK-5991           
1 56331U 23058Q   26024.92904691  .00001361  00000+0  11045-3 0  9994
2 56331  97.6049  27.3468 0002874  49.7599 310.3877 15.01267757151567
STARLINK-5093           
1 56332U 23058R   26024.74021614  .00000675  00000+0  57063-4 0  9998
2 56332  97.6032  27.1392 0003733  53.0077 307.1489 15.01262383151538
STARLINK-5553           
1 56333U 23058S   26024.95646944  .00001869  00000+0  13369-3 0  9997
2 56333  97.6063  28.0669 0001969 103.0240 257.1206 15.05658512151614
STARLINK-5548           
1 56334U 23058T   26024.97032866  .00009804  00000+0  68252-3 0  9990
2 56334  97.6038  28.2013 0001931  73.9006 286.2433 15.05659605151626
STARLINK-5559           
1 56335U 23058U   26024.71834392  .00004029  00000+0  28324-3 0  9997
2 56335  97.6060  27.9235 0001632  84.2368 275.9045 15.05651014151583
STARLINK-5562           
1 56336U 23058V   26024.93275033 -.00001235  00000+0 -91590-4 0  9997
2 56336  97.6047  27.3429 0003406  59.0949 301.0610 15.01267757151564
